{
    "count": 100,
    "zip_map": [
        {
            "zip_code": "80108",
            "state": "CO",
            "city": "Castle Rock",
            "rent_growth": 3.93,
            "appreciation": 4.73,
            "cap_rate": 2.22
        },
        {
            "zip_code": "80547",
            "state": "CO",
            "city": "Timnath",
            "rent_growth": 1.99,
            "appreciation": 5.84,
            "cap_rate": 2.34
        },
        {
            "zip_code": "81621",
            "state": "CO",
            "city": "Basalt",
            "rent_growth": 3.74,
            "appreciation": 6.87,
            "cap_rate": 1.73
        },
        {
            "zip_code": "81647",
            "state": "CO",
            "city": "New Castle",
            "rent_growth": 1.3,
            "appreciation": 5.23,
            "cap_rate": 2.61
        },
        {
            "zip_code": "92585",
            "state": "CA",
            "city": "Menifee",
            "rent_growth": 7.32,
            "appreciation": 7.98,
            "cap_rate": 4.54
        },
        {
            "zip_code": "93625",
            "state": "CA",
            "city": "Fowler",
            "rent_growth": 4.15,
            "appreciation": 4.78,
            "cap_rate": 2.32
        },
        {
            "zip_code": "29829",
            "state": "SC",
            "city": "Graniteville",
            "rent_growth": 3.36,
            "appreciation": 6.61,
            "cap_rate": 4.27
        },
        {
            "zip_code": "30013",
            "state": "GA",
            "city": "Conyers",
            "rent_growth": 5.82,
            "appreciation": 5.89,
            "cap_rate": 4.76
        },
        {
            "zip_code": "30028",
            "state": "GA",
            "city": "Cumming",
            "rent_growth": 6.48,
            "appreciation": 6.96,
            "cap_rate": 4.11
        },
        {
            "zip_code": "30248",
            "state": "GA",
            "city": "Locust Grove",
            "rent_growth": 4.79,
            "appreciation": 8.54,
            "cap_rate": 4.94
        },
        {
            "zip_code": "30253",
            "state": "GA",
            "city": "Mcdonough",
            "rent_growth": 5.75,
            "appreciation": 6.14,
            "cap_rate": 4.98
        },
        {
            "zip_code": "30341",
            "state": "GA",
            "city": "Atlanta",
            "rent_growth": 6.52,
            "appreciation": 4.76,
            "cap_rate": 3.56
        },
        {
            "zip_code": "31093",
            "state": "GA",
            "city": "Warner Robins",
            "rent_growth": 3.45,
            "appreciation": 4.92,
            "cap_rate": 6.56
        },
        {
            "zip_code": "31211",
            "state": "GA",
            "city": "Macon",
            "rent_growth": 4.74,
            "appreciation": 5.29,
            "cap_rate": 5.48
        },
        {
            "zip_code": "31315",
            "state": "GA",
            "city": "Fort Stewart",
            "rent_growth": 4.48,
            "appreciation": 0.0,
            "cap_rate": 30.0
        },
        {
            "zip_code": "31405",
            "state": "GA",
            "city": "Savannah",
            "rent_growth": 5.37,
            "appreciation": 6.93,
            "cap_rate": 4.5
        },
        {
            "zip_code": "31901",
            "state": "GA",
            "city": "Columbus",
            "rent_growth": 6.48,
            "appreciation": 5.39,
            "cap_rate": 4.41
        },
        {
            "zip_code": "35209",
            "state": "AL",
            "city": "Birmingham",
            "rent_growth": 3.94,
            "appreciation": 5.43,
            "cap_rate": 2.44
        },
        {
            "zip_code": "35228",
            "state": "AL",
            "city": "Birmingham",
            "rent_growth": 5.58,
            "appreciation": 1.45,
            "cap_rate": 12.04
        },
        {
            "zip_code": "36064",
            "state": "AL",
            "city": "Pike Road",
            "rent_growth": 5.28,
            "appreciation": 5.42,
            "cap_rate": 3.48
        },
        {
            "zip_code": "46062",
            "state": "IN",
            "city": "Noblesville",
            "rent_growth": 7.36,
            "appreciation": 7.0,
            "cap_rate": 3.74
        },
        {
            "zip_code": "46075",
            "state": "IN",
            "city": "Whitestown",
            "rent_growth": 7.33,
            "appreciation": 7.46,
            "cap_rate": 5.15
        },
        {
            "zip_code": "46214",
            "state": "IN",
            "city": "Indianapolis",
            "rent_growth": 5.35,
            "appreciation": 4.47,
            "cap_rate": 5.78
        },
        {
            "zip_code": "46803",
            "state": "IN",
            "city": "Fort Wayne",
            "rent_growth": 4.73,
            "appreciation": 5.77,
            "cap_rate": 10.18
        },
        {
            "zip_code": "46962",
            "state": "IN",
            "city": "North Manchester",
            "rent_growth": 2.33,
            "appreciation": 3.55,
            "cap_rate": 4.56
        },
        {
            "zip_code": "47170",
            "state": "IN",
            "city": "Scottsburg",
            "rent_growth": 2.61,
            "appreciation": 5.3,
            "cap_rate": 4.81
        },
        {
            "zip_code": "47882",
            "state": "IN",
            "city": "Sullivan",
            "rent_growth": 4.65,
            "appreciation": 3.71,
            "cap_rate": 5.45
        },
        {
            "zip_code": "50021",
            "state": "IA",
            "city": "Ankeny",
            "rent_growth": 4.99,
            "appreciation": 5.0,
            "cap_rate": 4.5
        },
        {
            "zip_code": "50211",
            "state": "IA",
            "city": "Norwalk",
            "rent_growth": 1.42,
            "appreciation": 4.24,
            "cap_rate": 2.77
        },
        {
            "zip_code": "50263",
            "state": "IA",
            "city": "Waukee",
            "rent_growth": 3.73,
            "appreciation": 5.48,
            "cap_rate": 3.58
        },
        {
            "zip_code": "60436",
            "state": "IL",
            "city": "Joliet",
            "rent_growth": 2.98,
            "appreciation": 2.72,
            "cap_rate": 6.75
        },
        {
            "zip_code": "60610",
            "state": "IL",
            "city": "Chicago",
            "rent_growth": 4.3,
            "appreciation": 3.13,
            "cap_rate": 3.57
        },
        {
            "zip_code": "72227",
            "state": "AR",
            "city": "Little Rock",
            "rent_growth": 3.41,
            "appreciation": 4.04,
            "cap_rate": 3.23
        },
        {
            "zip_code": "72417",
            "state": "AR",
            "city": "Brookland",
            "rent_growth": 5.38,
            "appreciation": 5.21,
            "cap_rate": 5.17
        },
        {
            "zip_code": "72713",
            "state": "AR",
            "city": "Bentonville",
            "rent_growth": 4.07,
            "appreciation": 3.54,
            "cap_rate": 3.63
        },
        {
            "zip_code": "80018",
            "state": "CO",
            "city": "Aurora",
            "rent_growth": 5.61,
            "appreciation": 6.32,
            "cap_rate": 3.89
        },
        {
            "zip_code": "80209",
            "state": "CO",
            "city": "Denver",
            "rent_growth": 6.68,
            "appreciation": 6.99,
            "cap_rate": 1.96
        },
        {
            "zip_code": "80236",
            "state": "CO",
            "city": "Denver",
            "rent_growth": 4.39,
            "appreciation": 6.17,
            "cap_rate": 3.09
        },
        {
            "zip_code": "80550",
            "state": "CO",
            "city": "Windsor",
            "rent_growth": 6.0,
            "appreciation": 6.31,
            "cap_rate": 3.1
        },
        {
            "zip_code": "80908",
            "state": "CO",
            "city": "Colorado Springs",
            "rent_growth": 0.52,
            "appreciation": 4.97,
            "cap_rate": 2.31
        },
        {
            "zip_code": "80921",
            "state": "CO",
            "city": "Colorado Springs",
            "rent_growth": 6.69,
            "appreciation": 6.91,
            "cap_rate": 3.7
        },
        {
            "zip_code": "80924",
            "state": "CO",
            "city": "Colorado Springs",
            "rent_growth": 3.37,
            "appreciation": 6.19,
            "cap_rate": 3.71
        },
        {
            "zip_code": "81008",
            "state": "CO",
            "city": "Pueblo",
            "rent_growth": 4.58,
            "appreciation": 8.55,
            "cap_rate": 5.2
        },
        {
            "zip_code": "81637",
            "state": "CO",
            "city": "Gypsum",
            "rent_growth": 5.33,
            "appreciation": 7.1,
            "cap_rate": 3.47
        },
        {
            "zip_code": "83642",
            "state": "ID",
            "city": "Meridian",
            "rent_growth": 7.82,
            "appreciation": 7.66,
            "cap_rate": 2.95
        },
        {
            "zip_code": "83686",
            "state": "ID",
            "city": "Nampa",
            "rent_growth": 6.39,
            "appreciation": 10.0,
            "cap_rate": 3.03
        },
        {
            "zip_code": "83687",
            "state": "ID",
            "city": "Nampa",
            "rent_growth": 7.45,
            "appreciation": 9.38,
            "cap_rate": 3.4
        },
        {
            "zip_code": "83854",
            "state": "ID",
            "city": "Post Falls",
            "rent_growth": 5.77,
            "appreciation": 8.39,
            "cap_rate": 2.84
        },
        {
            "zip_code": "85003",
            "state": "AZ",
            "city": "Phoenix",
            "rent_growth": 5.35,
            "appreciation": 8.06,
            "cap_rate": 2.07
        },
        {
            "zip_code": "85004",
            "state": "AZ",
            "city": "Phoenix",
            "rent_growth": 7.0,
            "appreciation": 4.08,
            "cap_rate": 4.48
        },
        {
            "zip_code": "85012",
            "state": "AZ",
            "city": "Phoenix",
            "rent_growth": 6.6,
            "appreciation": 5.37,
            "cap_rate": 2.47
        },
        {
            "zip_code": "85054",
            "state": "AZ",
            "city": "Phoenix",
            "rent_growth": 9.99,
            "appreciation": 8.29,
            "cap_rate": 3.95
        },
        {
            "zip_code": "85085",
            "state": "AZ",
            "city": "Phoenix",
            "rent_growth": 5.13,
            "appreciation": 6.82,
            "cap_rate": 2.87
        },
        {
            "zip_code": "85128",
            "state": "AZ",
            "city": "Coolidge",
            "rent_growth": 7.28,
            "appreciation": 9.92,
            "cap_rate": 4.91
        },
        {
            "zip_code": "85212",
            "state": "AZ",
            "city": "Mesa",
            "rent_growth": 7.57,
            "appreciation": 8.75,
            "cap_rate": 3.47
        },
        {
            "zip_code": "85305",
            "state": "AZ",
            "city": "Glendale",
            "rent_growth": 8.57,
            "appreciation": 7.83,
            "cap_rate": 4.47
        },
        {
            "zip_code": "85307",
            "state": "AZ",
            "city": "Glendale",
            "rent_growth": 6.92,
            "appreciation": 9.92,
            "cap_rate": 4.56
        },
        {
            "zip_code": "85338",
            "state": "AZ",
            "city": "Goodyear",
            "rent_growth": 6.07,
            "appreciation": 7.46,
            "cap_rate": 4.12
        },
        {
            "zip_code": "85340",
            "state": "AZ",
            "city": "Litchfield Park",
            "rent_growth": 4.72,
            "appreciation": 6.82,
            "cap_rate": 3.46
        },
        {
            "zip_code": "85716",
            "state": "AZ",
            "city": "Tucson",
            "rent_growth": 5.79,
            "appreciation": 5.53,
            "cap_rate": 3.52
        },
        {
            "zip_code": "86046",
            "state": "AZ",
            "city": "Williams",
            "rent_growth": 2.82,
            "appreciation": 7.3,
            "cap_rate": 2.81
        },
        {
            "zip_code": "86351",
            "state": "AZ",
            "city": "Sedona",
            "rent_growth": 5.57,
            "appreciation": 5.08,
            "cap_rate": 2.29
        },
        {
            "zip_code": "86409",
            "state": "AZ",
            "city": "Kingman",
            "rent_growth": 2.77,
            "appreciation": 4.75,
            "cap_rate": 4.66
        },
        {
            "zip_code": "90056",
            "state": "CA",
            "city": "Los Angeles",
            "rent_growth": 5.29,
            "appreciation": 7.01,
            "cap_rate": 1.4
        },
        {
            "zip_code": "90401",
            "state": "CA",
            "city": "Santa Monica",
            "rent_growth": 4.67,
            "appreciation": 6.14,
            "cap_rate": 1.62
        },
        {
            "zip_code": "91101",
            "state": "CA",
            "city": "Pasadena",
            "rent_growth": 4.49,
            "appreciation": 4.07,
            "cap_rate": 2.75
        },
        {
            "zip_code": "91708",
            "state": "CA",
            "city": "Chino",
            "rent_growth": 2.79,
            "appreciation": 7.28,
            "cap_rate": 4.04
        },
        {
            "zip_code": "92014",
            "state": "CA",
            "city": "Del Mar",
            "rent_growth": 3.26,
            "appreciation": 4.57,
            "cap_rate": 1.36
        },
        {
            "zip_code": "92118",
            "state": "CA",
            "city": "Coronado",
            "rent_growth": 5.71,
            "appreciation": 6.02,
            "cap_rate": 1.41
        },
        {
            "zip_code": "92120",
            "state": "CA",
            "city": "San Diego",
            "rent_growth": 4.72,
            "appreciation": 6.86,
            "cap_rate": 2.68
        },
        {
            "zip_code": "92342",
            "state": "CA",
            "city": "Helendale",
            "rent_growth": 1.42,
            "appreciation": 4.95,
            "cap_rate": 4.66
        },
        {
            "zip_code": "92408",
            "state": "CA",
            "city": "San Bernardino",
            "rent_growth": 5.68,
            "appreciation": 7.15,
            "cap_rate": 3.31
        },
        {
            "zip_code": "92584",
            "state": "CA",
            "city": "Menifee",
            "rent_growth": 3.37,
            "appreciation": 6.84,
            "cap_rate": 4.21
        },
        {
            "zip_code": "92657",
            "state": "CA",
            "city": "Newport Coast",
            "rent_growth": 5.49,
            "appreciation": 4.61,
            "cap_rate": 1.48
        },
        {
            "zip_code": "93256",
            "state": "CA",
            "city": "Pixley",
            "rent_growth": 6.68,
            "appreciation": 6.7,
            "cap_rate": 4.86
        },
        {
            "zip_code": "93501",
            "state": "CA",
            "city": "Mojave",
            "rent_growth": 6.41,
            "appreciation": 8.96,
            "cap_rate": 6.13
        },
        {
            "zip_code": "93620",
            "state": "CA",
            "city": "Dos Palos",
            "rent_growth": 3.64,
            "appreciation": 4.36,
            "cap_rate": 2.76
        },
        {
            "zip_code": "93630",
            "state": "CA",
            "city": "Kerman",
            "rent_growth": 4.34,
            "appreciation": 5.7,
            "cap_rate": 2.48
        },
        {
            "zip_code": "93927",
            "state": "CA",
            "city": "Greenfield",
            "rent_growth": 3.49,
            "appreciation": 7.05,
            "cap_rate": 2.67
        },
        {
            "zip_code": "94105",
            "state": "CA",
            "city": "San Francisco",
            "rent_growth": 3.94,
            "appreciation": 4.2,
            "cap_rate": 2.0
        },
        {
            "zip_code": "94158",
            "state": "CA",
            "city": "San Francisco",
            "rent_growth": 6.74,
            "appreciation": 6.9,
            "cap_rate": 1.68
        },
        {
            "zip_code": "95012",
            "state": "CA",
            "city": "Castroville",
            "rent_growth": 3.35,
            "appreciation": 6.69,
            "cap_rate": 1.87
        },
        {
            "zip_code": "95019",
            "state": "CA",
            "city": "Freedom",
            "rent_growth": 7.43,
            "appreciation": 9.73,
            "cap_rate": 2.37
        },
        {
            "zip_code": "95202",
            "state": "CA",
            "city": "Stockton",
            "rent_growth": 5.65,
            "appreciation": 6.36,
            "cap_rate": 2.47
        },
        {
            "zip_code": "95354",
            "state": "CA",
            "city": "Modesto",
            "rent_growth": 6.7,
            "appreciation": 7.08,
            "cap_rate": 3.79
        },
        {
            "zip_code": "95453",
            "state": "CA",
            "city": "Lakeport",
            "rent_growth": 4.85,
            "appreciation": 2.28,
            "cap_rate": 2.63
        },
        {
            "zip_code": "95694",
            "state": "CA",
            "city": "Winters",
            "rent_growth": 3.49,
            "appreciation": 6.91,
            "cap_rate": 2.03
        },
        {
            "zip_code": "95742",
            "state": "CA",
            "city": "Rancho Cordova",
            "rent_growth": 2.65,
            "appreciation": 6.78,
            "cap_rate": 3.66
        },
        {
            "zip_code": "95824",
            "state": "CA",
            "city": "Sacramento",
            "rent_growth": 5.66,
            "appreciation": 7.6,
            "cap_rate": 3.79
        },
        {
            "zip_code": "83402",
            "state": "ID",
            "city": "Idaho Falls",
            "rent_growth": 4.59,
            "appreciation": 8.9,
            "cap_rate": 2.83
        },
        {
            "zip_code": "36527",
            "state": "AL",
            "city": "Daphne",
            "rent_growth": 1.43,
            "appreciation": 4.02,
            "cap_rate": 3.7
        },
        {
            "zip_code": "30360",
            "state": "GA",
            "city": "Atlanta",
            "rent_growth": 5.64,
            "appreciation": 4.62,
            "cap_rate": 3.56
        },
        {
            "zip_code": "30548",
            "state": "GA",
            "city": "Hoschton",
            "rent_growth": 6.02,
            "appreciation": 5.37,
            "cap_rate": 2.59
        },
        {
            "zip_code": "30566",
            "state": "GA",
            "city": "Oakwood",
            "rent_growth": 2.61,
            "appreciation": 8.26,
            "cap_rate": 4.44
        },
        {
            "zip_code": "31029",
            "state": "GA",
            "city": "Forsyth",
            "rent_growth": 3.42,
            "appreciation": 6.34,
            "cap_rate": 3.57
        },
        {
            "zip_code": "31407",
            "state": "GA",
            "city": "Port Wentworth",
            "rent_growth": 6.53,
            "appreciation": 5.71,
            "cap_rate": 7.34
        },
        {
            "zip_code": "31636",
            "state": "GA",
            "city": "Lake Park",
            "rent_growth": 2.8,
            "appreciation": 3.7,
            "cap_rate": 3.82
        },
        {
            "zip_code": "31820",
            "state": "GA",
            "city": "Midland",
            "rent_growth": 2.59,
            "appreciation": 3.79,
            "cap_rate": 4.32
        },
        {
            "zip_code": "35068",
            "state": "AL",
            "city": "Fultondale",
            "rent_growth": 4.1,
            "appreciation": 3.85,
            "cap_rate": 5.5
        },
        {
            "zip_code": "36107",
            "state": "AL",
            "city": "Montgomery",
            "rent_growth": 2.68,
            "appreciation": 2.26,
            "cap_rate": 10.27
        }
    ],
    "rent_growth_avg": 4.86,
    "appreciation_avg": 6.0,
    "cap_rate_avg": 4.07,
    "msas": [
        12060,
        12260,
        12540,
        13820,
        13940,
        14260,
        16980,
        17340,
        17660,
        17820,
        17980,
        19300,
        19740,
        19780,
        20780,
        22220,
        22380,
        22660,
        23060,
        23420,
        23580,
        24540,
        25980,
        26820,
        26900,
        27600,
        27860,
        29420,
        30780,
        31080,
        31140,
        31420,
        31500,
        32900,
        33700,
        33860,
        37500,
        38060,
        39150,
        39380,
        40090,
        40140,
        40900,
        41500,
        41740,
        41860,
        42100,
        42340,
        44700,
        45460,
        46060,
        46660,
        46700,
        47300,
        47340,
        47580,
        47700
    ],
    "usstates": [
        "AL",
        "AR",
        "AZ",
        "CA",
        "CO",
        "GA",
        "IA",
        "ID",
        "IL",
        "IN",
        "SC"
    ],
    "zip_codes": [
        "29829",
        "30013",
        "30028",
        "30248",
        "30253",
        "30341",
        "30360",
        "30548",
        "30566",
        "31029",
        "31093",
        "31211",
        "31315",
        "31405",
        "31407",
        "31636",
        "31820",
        "31901",
        "35068",
        "35209",
        "35228",
        "36064",
        "36107",
        "36527",
        "46062",
        "46075",
        "46214",
        "46803",
        "46962",
        "47170",
        "47882",
        "50021",
        "50211",
        "50263",
        "60436",
        "60610",
        "72227",
        "72417",
        "72713",
        "80018",
        "80108",
        "80209",
        "80236",
        "80547",
        "80550",
        "80908",
        "80921",
        "80924",
        "81008",
        "81621",
        "81637",
        "81647",
        "83402",
        "83642",
        "83686",
        "83687",
        "83854",
        "85003",
        "85004",
        "85012",
        "85054",
        "85085",
        "85128",
        "85212",
        "85305",
        "85307",
        "85338",
        "85340",
        "85716",
        "86046",
        "86351",
        "86409",
        "90056",
        "90401",
        "91101",
        "91708",
        "92014",
        "92118",
        "92120",
        "92342",
        "92408",
        "92584",
        "92585",
        "92657",
        "93256",
        "93501",
        "93620",
        "93625",
        "93630",
        "93927",
        "94105",
        "94158",
        "95012",
        "95019",
        "95202",
        "95354",
        "95453",
        "95694",
        "95742",
        "95824"
    ]
}